CYGNUS NG-23            
1 65616U 25208A   25352.66763517  .00007358  00000+0  13842-3 0  9992
2 65616  51.6314 113.1238 0003181 267.6136  92.4488 15.49654558   220
DRAGONFLY               
1 65729U 98067XH  25352.58353461  .00166206  00000+0  11293-2 0  9999
2 65729  51.6249 105.7955 0007166 314.6867  45.3548 15.73865471 14084
1998-067XK              
1 65731U 98067XK  25352.60392310  .00090673  00000+0  83588-3 0  9992
2 65731  51.6292 107.4546 0004791 283.3796  76.6665 15.66848038 14061
RSP-03                  
1 65732U 98067XL  25352.53368180  .00121384  00000+0  97504-3 0  9990
2 65732  51.6263 106.9735 0005665 289.7816  70.2570 15.70075461 14071
GHS-01                  
1 65733U 98067XM  25352.90352596  .00206465  00000+0  11904-2 0  9999
2 65733  51.6277 103.4385 0007989 320.4925  39.5492 15.77485683 14153
YOTSUBA-KULOVER         
1 65941U 98067XN  25352.41452413  .00066041  00000+0  79453-3 0  9993
2 65941  51.6285 111.4386 0001660 311.4961  48.5889 15.60208015 10748
BOTAN                   
1 65942U 98067XP  25352.40687507  .00105165  00000+0  10814-2 0  9993
2 65942  51.6278 110.6371 0002848 287.2475  72.8208 15.64050786 10755
E-KAGAKU-1              
1 65943U 98067XQ  25352.35057484  .00070368  00000+0  84620-3 0  9996
2 65943  51.6302 111.7666 0001345 249.8249 110.2600 15.60193795 10732
HRC MONOBLOCK CAMERA    
1 66052U 98067XR  25352.95182665  .00030942  00000+0  46534-3 0  9990
2 66052  51.6297 110.5221 0002633 211.9232 148.1600 15.54565744  9800
HTV-X1                  
1 66174U 25241A   25352.66763517  .00007358  00000+0  13842-3 0  9999
2 66174  51.6314 113.1238 0003181 267.6136  92.4488 15.49654558   512
SZ-21 MODULE            
1 66515U 25246C   25352.35514958  .00025551  00000+0  27860-3 0  9992
2 66515  41.4774 341.7845 0005854 290.1533  69.8677 15.62772734  5326
SHENZHOU-22             
1 66645U 25272A   25352.92727218  .00021030  00000+0  26140-3 0  9991
2 66645  41.4683 339.1361 0007698  85.4974 274.6744 15.59443301263570
