CCSDS_OMM_VERS = 2.0
CREATION_DATE  = 
ORIGINATOR     = 

OBJECT_NAME    = CYGNUS NG-23
OBJECT_ID      = 2025-208A
CENTER_NAME    = EARTH
REF_FRAME      = TEME
TIME_SYSTEM    = UTC
MEAN_ELEMENT_THEORY = SGP/SGP4

EPOCH          = 2025-12-18T16:01:23.678688
MEAN_MOTION    = 15.49654558
ECCENTRICITY   = .00031819
INCLINATION    = 51.6314
RA_OF_ASC_NODE = 113.1238
ARG_OF_PERICENTER = 267.6136
MEAN_ANOMALY   = 92.4488

EPHEMERIS_TYPE = 0
CLASSIFICATION_TYPE = U
NORAD_CAT_ID   = 65616
ELEMENT_SET_NO = 999
REV_AT_EPOCH   = 22
BSTAR          = .138424E-3
MEAN_MOTION_DOT = .7358E-4
MEAN_MOTION_DDOT = 0

CCSDS_OMM_VERS = 2.0
CREATION_DATE  = 
ORIGINATOR     = 

OBJECT_NAME    = DRAGONFLY
OBJECT_ID      = 1998-067XH
CENTER_NAME    = EARTH
REF_FRAME      = TEME
TIME_SYSTEM    = UTC
MEAN_ELEMENT_THEORY = SGP/SGP4

EPOCH          = 2025-12-18T14:00:17.390304
MEAN_MOTION    = 15.73865471
ECCENTRICITY   = .0007166
INCLINATION    = 51.6249
RA_OF_ASC_NODE = 105.7955
ARG_OF_PERICENTER = 314.6867
MEAN_ANOMALY   = 45.3548

EPHEMERIS_TYPE = 0
CLASSIFICATION_TYPE = U
NORAD_CAT_ID   = 65729
ELEMENT_SET_NO = 999
REV_AT_EPOCH   = 1408
BSTAR          = .1129306E-2
MEAN_MOTION_DOT = .166206E-2
MEAN_MOTION_DDOT = 0

CCSDS_OMM_VERS = 2.0
CREATION_DATE  = 
ORIGINATOR     = 

OBJECT_NAME    = 1998-067XK
OBJECT_ID      = 1998-067XK
CENTER_NAME    = EARTH
REF_FRAME      = TEME
TIME_SYSTEM    = UTC
MEAN_ELEMENT_THEORY = SGP/SGP4

EPOCH          = 2025-12-18T14:29:38.955840
MEAN_MOTION    = 15.66848038
ECCENTRICITY   = .0004791
INCLINATION    = 51.6292
RA_OF_ASC_NODE = 107.4546
ARG_OF_PERICENTER = 283.3796
MEAN_ANOMALY   = 76.6665

EPHEMERIS_TYPE = 0
CLASSIFICATION_TYPE = U
NORAD_CAT_ID   = 65731
ELEMENT_SET_NO = 999
REV_AT_EPOCH   = 1406
BSTAR          = .83587979E-3
MEAN_MOTION_DOT = .90673E-3
MEAN_MOTION_DDOT = 0

CCSDS_OMM_VERS = 2.0
CREATION_DATE  = 
ORIGINATOR     = 

OBJECT_NAME    = RSP-03
OBJECT_ID      = 1998-067XL
CENTER_NAME    = EARTH
REF_FRAME      = TEME
TIME_SYSTEM    = UTC
MEAN_ELEMENT_THEORY = SGP/SGP4

EPOCH          = 2025-12-18T12:48:30.107520
MEAN_MOTION    = 15.70075461
ECCENTRICITY   = .00056659
INCLINATION    = 51.6263
RA_OF_ASC_NODE = 106.9735
ARG_OF_PERICENTER = 289.7816
MEAN_ANOMALY   = 70.2570

EPHEMERIS_TYPE = 0
CLASSIFICATION_TYPE = U
NORAD_CAT_ID   = 65732
ELEMENT_SET_NO = 999
REV_AT_EPOCH   = 1407
BSTAR          = .97504064E-3
MEAN_MOTION_DOT = .121384E-2
MEAN_MOTION_DDOT = 0

CCSDS_OMM_VERS = 2.0
CREATION_DATE  = 
ORIGINATOR     = 

OBJECT_NAME    = GHS-01
OBJECT_ID      = 1998-067XM
CENTER_NAME    = EARTH
REF_FRAME      = TEME
TIME_SYSTEM    = UTC
MEAN_ELEMENT_THEORY = SGP/SGP4

EPOCH          = 2025-12-18T21:41:04.642944
MEAN_MOTION    = 15.77485683
ECCENTRICITY   = .00079897
INCLINATION    = 51.6277
RA_OF_ASC_NODE = 103.4385
ARG_OF_PERICENTER = 320.4925
MEAN_ANOMALY   = 39.5492

EPHEMERIS_TYPE = 0
CLASSIFICATION_TYPE = U
NORAD_CAT_ID   = 65733
ELEMENT_SET_NO = 999
REV_AT_EPOCH   = 1415
BSTAR          = .1190379E-2
MEAN_MOTION_DOT = .206465E-2
MEAN_MOTION_DDOT = 0

CCSDS_OMM_VERS = 2.0
CREATION_DATE  = 
ORIGINATOR     = 

OBJECT_NAME    = YOTSUBA-KULOVER
OBJECT_ID      = 1998-067XN
CENTER_NAME    = EARTH
REF_FRAME      = TEME
TIME_SYSTEM    = UTC
MEAN_ELEMENT_THEORY = SGP/SGP4

EPOCH          = 2025-12-18T09:56:54.884832
MEAN_MOTION    = 15.60208015
ECCENTRICITY   = .00016606
INCLINATION    = 51.6285
RA_OF_ASC_NODE = 111.4386
ARG_OF_PERICENTER = 311.4961
MEAN_ANOMALY   = 48.5889

EPHEMERIS_TYPE = 0
CLASSIFICATION_TYPE = U
NORAD_CAT_ID   = 65941
ELEMENT_SET_NO = 999
REV_AT_EPOCH   = 1074
BSTAR          = .7945309E-3
MEAN_MOTION_DOT = .66041E-3
MEAN_MOTION_DDOT = 0

CCSDS_OMM_VERS = 2.0
CREATION_DATE  = 
ORIGINATOR     = 

OBJECT_NAME    = BOTAN
OBJECT_ID      = 1998-067XP
CENTER_NAME    = EARTH
REF_FRAME      = TEME
TIME_SYSTEM    = UTC
MEAN_ELEMENT_THEORY = SGP/SGP4

EPOCH          = 2025-12-18T09:45:54.006048
MEAN_MOTION    = 15.64050786
ECCENTRICITY   = .00028482
INCLINATION    = 51.6278
RA_OF_ASC_NODE = 110.6371
ARG_OF_PERICENTER = 287.2475
MEAN_ANOMALY   = 72.8208

EPHEMERIS_TYPE = 0
CLASSIFICATION_TYPE = U
NORAD_CAT_ID   = 65942
ELEMENT_SET_NO = 999
REV_AT_EPOCH   = 1075
BSTAR          = .10814457E-2
MEAN_MOTION_DOT = .105165E-2
MEAN_MOTION_DDOT = 0

CCSDS_OMM_VERS = 2.0
CREATION_DATE  = 
ORIGINATOR     = 

OBJECT_NAME    = E-KAGAKU-1
OBJECT_ID      = 1998-067XQ
CENTER_NAME    = EARTH
REF_FRAME      = TEME
TIME_SYSTEM    = UTC
MEAN_ELEMENT_THEORY = SGP/SGP4

EPOCH          = 2025-12-18T08:24:49.666176
MEAN_MOTION    = 15.60193795
ECCENTRICITY   = .00013451
INCLINATION    = 51.6302
RA_OF_ASC_NODE = 111.7666
ARG_OF_PERICENTER = 249.8249
MEAN_ANOMALY   = 110.2600

EPHEMERIS_TYPE = 0
CLASSIFICATION_TYPE = U
NORAD_CAT_ID   = 65943
ELEMENT_SET_NO = 999
REV_AT_EPOCH   = 1073
BSTAR          = .84619625E-3
MEAN_MOTION_DOT = .70368E-3
MEAN_MOTION_DDOT = 0

CCSDS_OMM_VERS = 2.0
CREATION_DATE  = 
ORIGINATOR     = 

OBJECT_NAME    = HRC MONOBLOCK CAMERA
OBJECT_ID      = 1998-067XR
CENTER_NAME    = EARTH
REF_FRAME      = TEME
TIME_SYSTEM    = UTC
MEAN_ELEMENT_THEORY = SGP/SGP4

EPOCH          = 2025-12-18T22:50:37.822560
MEAN_MOTION    = 15.54565744
ECCENTRICITY   = .00026331
INCLINATION    = 51.6297
RA_OF_ASC_NODE = 110.5221
ARG_OF_PERICENTER = 211.9232
MEAN_ANOMALY   = 148.1600

EPHEMERIS_TYPE = 0
CLASSIFICATION_TYPE = U
NORAD_CAT_ID   = 66052
ELEMENT_SET_NO = 999
REV_AT_EPOCH   = 980
BSTAR          = .46533518E-3
MEAN_MOTION_DOT = .30942E-3
MEAN_MOTION_DDOT = 0

CCSDS_OMM_VERS = 2.0
CREATION_DATE  = 
ORIGINATOR     = 

OBJECT_NAME    = HTV-X1
OBJECT_ID      = 2025-241A
CENTER_NAME    = EARTH
REF_FRAME      = TEME
TIME_SYSTEM    = UTC
MEAN_ELEMENT_THEORY = SGP/SGP4

EPOCH          = 2025-12-18T16:01:23.678688
MEAN_MOTION    = 15.49654558
ECCENTRICITY   = .00031819
INCLINATION    = 51.6314
RA_OF_ASC_NODE = 113.1238
ARG_OF_PERICENTER = 267.6136
MEAN_ANOMALY   = 92.4488

EPHEMERIS_TYPE = 0
CLASSIFICATION_TYPE = U
NORAD_CAT_ID   = 66174
ELEMENT_SET_NO = 999
REV_AT_EPOCH   = 51
BSTAR          = .138424E-3
MEAN_MOTION_DOT = .7358E-4
MEAN_MOTION_DDOT = 0

CCSDS_OMM_VERS = 2.0
CREATION_DATE  = 
ORIGINATOR     = 

OBJECT_NAME    = SZ-21 MODULE
OBJECT_ID      = 2025-246C
CENTER_NAME    = EARTH
REF_FRAME      = TEME
TIME_SYSTEM    = UTC
MEAN_ELEMENT_THEORY = SGP/SGP4

EPOCH          = 2025-12-18T08:31:24.923712
MEAN_MOTION    = 15.62772734
ECCENTRICITY   = .00058547
INCLINATION    = 41.4774
RA_OF_ASC_NODE = 341.7845
ARG_OF_PERICENTER = 290.1533
MEAN_ANOMALY   = 69.8677

EPHEMERIS_TYPE = 0
CLASSIFICATION_TYPE = U
NORAD_CAT_ID   = 66515
ELEMENT_SET_NO = 999
REV_AT_EPOCH   = 532
BSTAR          = .27860354E-3
MEAN_MOTION_DOT = .25551E-3
MEAN_MOTION_DDOT = 0

CCSDS_OMM_VERS = 2.0
CREATION_DATE  = 
ORIGINATOR     = 

OBJECT_NAME    = SHENZHOU-22
OBJECT_ID      = 2025-272A
CENTER_NAME    = EARTH
REF_FRAME      = TEME
TIME_SYSTEM    = UTC
MEAN_ELEMENT_THEORY = SGP/SGP4

EPOCH          = 2025-12-18T22:15:16.316352
MEAN_MOTION    = 15.59443301
ECCENTRICITY   = .00076984
INCLINATION    = 41.4683
RA_OF_ASC_NODE = 339.1361
ARG_OF_PERICENTER = 85.4974
MEAN_ANOMALY   = 274.6744

EPHEMERIS_TYPE = 0
CLASSIFICATION_TYPE = U
NORAD_CAT_ID   = 66645
ELEMENT_SET_NO = 999
REV_AT_EPOCH   = 26357
BSTAR          = .26140428E-3
MEAN_MOTION_DOT = .2103E-3
MEAN_MOTION_DDOT = 0

